GLOBALSTAR M069         
1 31573U 07020C   26162.47656831 -.00000097  00000+0 -40781-4 0  9996
2 31573  52.0038 268.2901 0002461 136.3312 303.4603 12.23470979878106
GLOBALSTAR M072         
1 31574U 07020D   26162.62596762 -.00000087  00000+0 -42895-4 0  9997
2 31574  51.9918 115.0504 0001405 316.4945 219.8630 11.91658510874312
GLOBALSTAR M066         
1 32265U 07048C   26162.96294281 -.00000140  00000+0 -38312-3 0  9991
2 32265  51.9597  72.9090 0005397  32.8764  49.8235 12.30388173859589
GLOBALSTAR M079         
1 37188U 10054A   26162.18803622 -.00000094  00000+0  55533-4 0  9992
2 37188  52.0024 126.9316 0000568   8.8433   9.5571 12.62266060721799
GLOBALSTAR M074         
1 37189U 10054B   26162.64497106 -.00000107  00000+0 -20651-4 0  9999
2 37189  51.9999 124.8064 0000422  46.1474 129.8319 12.62268430722458
GLOBALSTAR M076         
1 37190U 10054C   26162.67144747 -.00000115  00000+0 -63200-4 0  9990
2 37190  52.0019 124.9283 0000610  35.0599 141.4966 12.62261782722173
GLOBALSTAR M077         
1 37191U 10054D   26162.37616590 -.00000055  00000+0  42640-3 0  9994
2 37191  51.9927 194.0459 0002827 162.1399 215.8316 11.67547651720466
GLOBALSTAR M075         
1 37192U 10054E   26162.35268154 -.00000083  00000+0  11460-3 0  9999
2 37192  51.9918 167.9577 0000029  53.3799  53.7309 12.62267381721203
GLOBALSTAR M073         
1 37193U 10054F   26162.98081627 -.00000118  00000+0 -82133-4 0  9993
2 37193  52.0062  80.1402 0000823  38.0463  43.3972 12.62262106723279
GLOBALSTAR M083         
1 37739U 11033A   26162.92011368 -.00000097  00000+0  40197-4 0  9995
2 37739  51.9873  28.5610 0000875  59.4284  47.4724 12.62262988692289
GLOBALSTAR M088         
1 37740U 11033B   26162.63696935 -.00000103  00000+0  48823-5 0  9997
2 37740  52.0226 295.8394 0000798 117.9934 259.9035 12.62268609687790
GLOBALSTAR M091         
1 37741U 11033C   26162.58973082 -.00000097  00000+0  36724-4 0  9991
2 37741  52.0001 258.9570 0000425 142.2500 321.9296 12.62263782688578
GLOBALSTAR M085         
1 37742U 11033D   26162.39940159 -.00000080  00000+0  13050-3 0  9998
2 37742  52.0106 210.8231 0000143 206.4221 172.5457 12.62263993689064
GLOBALSTAR M081         
1 37743U 11033E   26162.44431259 -.00000077  00000+0  14888-3 0  9997
2 37743  51.9937 213.1292 0000197 127.6445 335.1075 12.62264894689210
GLOBALSTAR M089         
1 37744U 11033F   26162.30700233 -.00000071  00000+0  18299-3 0  9998
2 37744  51.9906 167.7065 0000347  96.5648 282.7473 12.62267169690045
GLOBALSTAR M084         
1 38040U 11080A   26162.97280003 -.00000103  00000+0  35750-5 0  9990
2 38040  52.0023  33.1566 0001058  78.1908  28.0308 12.62267483668103
GLOBALSTAR M080         
1 38041U 11080B   26162.94344789 -.00000098  00000+0  32926-4 0  9994
2 38041  52.0078  34.9624 0000332  70.0861  32.7039 12.62269321668220
GLOBALSTAR M082         
1 38042U 11080C   26162.71981229 -.00000091  00000+0  69107-4 0  9990
2 38042  52.0098 351.1434 0000534  90.1443   6.0682 12.62269967668908
GLOBALSTAR M092         
1 38043U 11080D   26162.92687687 -.00000114  00000+0 -54765-4 0  9996
2 38043  52.0089  80.9092 0000606  55.9882  20.5660 12.62266922667388
GLOBALSTAR M090         
1 38044U 11080E   26162.82743203 -.00000095  00000+0  50586-4 0  9997
2 38044  52.0144 344.7699 0000808  84.2453  20.1631 12.62269012669039
GLOBALSTAR M086         
1 38045U 11080F   26162.68551679 -.00000085  00000+0  10661-3 0  9994
2 38045  51.9914 345.1407 0001651  58.1758  21.6449 12.62286661668963
GLOBALSTAR M097         
1 39072U 13005A   26162.54072705 -.00000099  00000+0  26173-4 0  9998
2 39072  52.0050 260.5247 0000401 125.4277 234.6627 12.62247179616198
GLOBALSTAR M093         
1 39073U 13005B   26162.51402443 -.00000093  00000+0  58383-4 0  9994
2 39073  52.0105 253.9508 0000270 105.8627 254.2270 12.62265790616147
GLOBALSTAR M094         
1 39074U 13005C   26162.27638472 -.00000083  00000+0  11761-3 0  9998
2 39074  51.9930 168.7959 0000255 344.7640  15.3219 12.62268589617720
GLOBALSTAR M096         
1 39075U 13005D   26162.44821407 -.00000079  00000+0  13649-3 0  9992
2 39075  52.0056 217.0709 0000125 175.8120 184.2747 12.62265487616663
GLOBALSTAR M078         
1 39076U 13005E   26162.65875461 -.00000183  00000+0 -44280-3 0  9997
2 39076  51.9889 300.4455 0000549 206.7112 153.3726 12.62258445615317
GLOBALSTAR M095         
1 39077U 13005F   26162.68552135 -.00000104  00000+0 -79060-6 0  9991
2 39077  52.0095 297.9607 0000334 125.3628 234.7270 12.62263363615175
GLOBALSTAR M087         
1 52888U 22064A   26162.93633864 -.00000113  00000+0 -50154-4 0  9999
2 52888  52.0000  78.4380 0000657  27.0530 333.0371 12.62268960190478
